{
    "satellites": [
        {
            "name": "starlink368",
            "title": "Starlink-368 (G10-33)",
            "tle": [
                "1 68290C 26055AE  26086.91645833 -.01175000  00000+0 -22224-2 0   860",
                "2 68290  53.1578 246.2098 0000757  73.9261 181.3248 16.00629456    11"
            ],
            "stdMag": 5,
            "noradId": "68290",
            "intDes": null,
            "tleUrl": "http://celestrak.org/NORAD/elements/supplemental/sup-gp.php?FILE=starlink&FORMAT=tle",
            "launchDate": "2026-03-19T14:20:10.000Z",
            "active": true,
            "batch": [
                {
                    "noradId": "68290",
                    "tle": [
                        "1 68290C 26055AE  26086.91645833 -.01175000  00000+0 -22224-2 0   860",
                        "2 68290  53.1578 246.2098 0000757  73.9261 181.3248 16.00629456    11"
                    ]
                },
                {
                    "noradId": "68284",
                    "tle": [
                        "1 68284C 26055Y   26086.84076389 -.01190600  00000+0 -23253-2 0   865",
                        "2 68284  53.1583 246.6343 0000793  80.2331  82.4346 16.00075485    13"
                    ]
                },
                {
                    "noradId": "68287",
                    "tle": [
                        "1 68287C 26055AB  26086.84493056 -.01182500  00000+0 -22445-2 0   864",
                        "2 68287  53.1584 246.5886 0000693  59.2494 138.8948 16.00571388    10"
                    ]
                },
                {
                    "noradId": "68289",
                    "tle": [
                        "1 68289C 26055AD  26086.94423611 -.01195300  00000+0 -22838-2 0   865",
                        "2 68289  53.1580 246.0703 0000652  70.0911 343.0954 16.00462625    11"
                    ]
                },
                {
                    "noradId": "68288",
                    "tle": [
                        "1 68288C 26055AC  26086.92340278 -.01185600  00000+0 -23098-2 0   860",
                        "2 68288  53.1577 246.1970 0000590  59.1658 225.1999 16.00117878    16"
                    ]
                },
                {
                    "noradId": "68286",
                    "tle": [
                        "1 68286C 26055AA  26086.84284722 -.01194800  00000+0 -22838-2 0   863",
                        "2 68286  53.1587 246.6067 0000813  78.1833 105.1003 16.00455629    13"
                    ]
                },
                {
                    "noradId": "68282",
                    "tle": [
                        "1 68282C 26055W   26086.83937500 -.01193500  00000+0 -23795-2 0   866",
                        "2 68282  53.1583 246.6594 0000753  62.7736  83.4048 15.99714755    16"
                    ]
                },
                {
                    "noradId": "68285",
                    "tle": [
                        "1 68285C 26055Z   26086.92409722 -.01187900  00000+0 -23313-2 0   862",
                        "2 68285  53.1575 246.1993 0000607  62.0799 223.3547 15.99989177    19"
                    ]
                },
                {
                    "noradId": "68283",
                    "tle": [
                        "1 68283C 26055X   26086.82340278 -.01202300  00000+0 -23602-2 0   862",
                        "2 68283  53.1582 246.7303 0000592  80.5068 339.0142 15.99992065    19"
                    ]
                },
                {
                    "noradId": "68280",
                    "tle": [
                        "1 68280C 26055U   26086.93381944 -.01194500  00000+0 -24294-2 0   866",
                        "2 68280  53.1579 246.1788 0000560  72.3797 254.7532 15.99362195    17"
                    ]
                },
                {
                    "noradId": "68276",
                    "tle": [
                        "1 68276C 26055Q   26086.84840278 -.01170400  00000+0 -24195-2 0   864",
                        "2 68276  53.1583 246.6445 0000830  64.4511 118.1204 15.99061404    16"
                    ]
                },
                {
                    "noradId": "68278",
                    "tle": [
                        "1 68278C 26055S   26086.86854167 -.01186700  00000+0 -24262-2 0   865",
                        "2 68278  53.1581 246.5286 0000598  63.1734 241.6478 15.99266108    15"
                    ]
                },
                {
                    "noradId": "68279",
                    "tle": [
                        "1 68279C 26055T   26086.82131944 -.01186900  00000+0 -24272-2 0   866",
                        "2 68279  53.1583 246.7772 0000839  64.9064 325.0638 15.99262873    13"
                    ]
                },
                {
                    "noradId": "68277",
                    "tle": [
                        "1 68277C 26055R   26086.93104167 -.01188700  00000+0 -24348-2 0   867",
                        "2 68277  53.1578 246.2004 0000530  67.5056 240.1644 15.99234085    14"
                    ]
                },
                {
                    "noradId": "68275",
                    "tle": [
                        "1 68275C 26055P   26086.86368056 -.01165200  00000+0 -24313-2 0   868",
                        "2 68275  53.1584 246.5732 0000684  65.0190 201.9910 15.98893666    18"
                    ]
                },
                {
                    "noradId": "68274",
                    "tle": [
                        "1 68274C 26055N   26086.86645833 -.01156600  00000+0 -24288-2 0   863",
                        "2 68274  53.1581 246.5640 0000742  62.2221 218.3533 15.98775115    12"
                    ]
                },
                {
                    "noradId": "68273",
                    "tle": [
                        "1 68273C 26055M   26086.85673611 -.01107800  00000+0 -23390-2 0   867",
                        "2 68273  53.1584 246.6197 0000772  60.4362 161.1948 15.98652026    11"
                    ]
                },
                {
                    "noradId": "68272",
                    "tle": [
                        "1 68272C 26055L   26086.91993056 -.01110500  00000+0 -23781-2 0   866",
                        "2 68272  53.1580 246.3005 0000633  67.2857 155.6688 15.98402474    10"
                    ]
                },
                {
                    "noradId": "68271",
                    "tle": [
                        "1 68271C 26055K   26086.86437500 -.00962680  00000+0 -20797-2 0   863",
                        "2 68271  53.1583 246.6003 0000741  59.5967 196.8311 15.98169706    17"
                    ]
                },
                {
                    "noradId": "68267",
                    "tle": [
                        "1 68267C 26055F   26086.92756944 -.00923180  00000+0 -20563-2 0   864",
                        "2 68267  53.1582 246.2999 0000768  61.6179 186.8033 15.97598301    15"
                    ]
                },
                {
                    "noradId": "68270",
                    "tle": [
                        "1 68270C 26055J   26086.85604167 -.00997680  00000+0 -21376-2 0   868",
                        "2 68270  53.1585 246.6366 0000777  64.1314 147.2706 15.98335141    13"
                    ]
                },
                {
                    "noradId": "68265",
                    "tle": [
                        "1 68265C 26055D   26086.81368056 -.00953550  00000+0 -21464-2 0   868",
                        "2 68265  53.1585 246.9040 0000749  64.4094 239.4692 15.97423312    11"
                    ]
                },
                {
                    "noradId": "68268",
                    "tle": [
                        "1 68268C 26055G   26086.94631944 -.00944570  00000+0 -20936-2 0   869",
                        "2 68268  53.1579 246.1979 0000651  54.4404 304.6123 15.97697922    10"
                    ]
                },
                {
                    "noradId": "68263",
                    "tle": [
                        "1 68263C 26055B   26086.92201389 -.00894110  00000+0 -20491-2 0   868",
                        "2 68263  53.1581 246.3539 0000850  53.9482 150.4286 15.97066691    13"
                    ]
                },
                {
                    "noradId": "68264",
                    "tle": [
                        "1 68264C 26055C   26086.85951389 -.00912340  00000+0 -20499-2 0   867",
                        "2 68264  53.1584 246.6628 0000825  56.7688 153.5036 15.97435459    19"
                    ]
                },
                {
                    "noradId": "68266",
                    "tle": [
                        "1 68266C 26055E   26086.82687500 -.00934760  00000+0 -20759-2 0   866",
                        "2 68266  53.1584 246.8235 0000752  66.0099 319.9208 15.97657683    10"
                    ]
                },
                {
                    "noradId": "68269",
                    "tle": [
                        "1 68269C 26055H   26086.88312500 -.00920520  00000+0 -20125-2 0   866",
                        "2 68269  53.1583 246.5166 0000702  59.1504 299.0744 15.97933233    12"
                    ]
                },
                {
                    "noradId": "68262",
                    "tle": [
                        "1 68262C 26055A   26086.94006944 -.00925720  00000+0 -21361-2 0   868",
                        "2 68262  53.1581 246.2654 0000576  57.3622 248.6930 15.96958297    15"
                    ]
                }
            ]
        }
    ],
    "config": {}
}